NORAD_CAT_ID,OBJECT_NAME,OBJECT_TYPE,EPOCH,MEAN_MOTION,ECCENTRICITY,INCLINATION,RA_OF_ASC_NODE,ARG_OF_PERICENTER,MEAN_ANOMALY,BSTAR,MEAN_MOTION_DOT,MEAN_MOTION_DDOT,TLE_LINE0,TLE_LINE1,TLE_LINE2,SEMIMAJOR_AXIS,PERIOD,APOGEE,PERIGEE,DECAYED
51125.0,STARLINK-3387,PAYLOAD,2022-12-18 12:44:45,15.08840898,0.0002955,53.2151,183.6018,30.7755,329.341,4.9351e-05,4.97e-06,0.0,0 STARLINK-3387,1 51125U 22005X   22352.53108726  .00000497  00000-0  49351-4 0  9995,2 51125  53.2151 183.6018 0002955  30.7755 329.3410 15.08840898 52132,6917.878000000002,95.437,541.7869999999998,537.698,0.0
51125.0,STARLINK-3387,PAYLOAD,2022-12-18 19:06:18,15.08855819,0.0003073,53.2152,182.4126,36.9799,323.1405,-0.00012409,-2.264e-05,0.0,0 STARLINK-3387,1 51125U 22005X   22352.79604226 -.00002264  00000-0 -12409-3 0  9998,2 51125  53.2152 182.4126 0003073  36.9799 323.1405 15.08855819 51053,6917.831999999999,95.437,541.823,537.571,0.0
51125.0,STARLINK-3387,PAYLOAD,2022-12-19 06:14:00,15.08843061,0.0002976,53.215,180.3308,32.3053,327.8119999999999,0.00015896,2.242e-05,0.0,0 STARLINK-3387,1 51125U 22005X   22353.25972379  .00002242  00000-0  15896-3 0  9994,2 51125  53.2150 180.3308 0002976  32.3053 327.8120 15.08843061 51123,6917.871,95.437,541.795,537.677,0.0
51125.0,STARLINK-3387,PAYLOAD,2022-12-19 18:57:04,15.08849292,0.0003085,53.2155,177.952,34.2232,325.8959,0.00015738,2.218e-05,0.0,0 STARLINK-3387,1 51125U 22005X   22353.78963902  .00002218  00000-0  15738-3 0  9992,2 51125  53.2155 177.9520 0003085  34.2232 325.8959 15.08849292 52321,6917.852,95.437,541.851,537.5830000000002,0.0
51125.0,STARLINK-3387,PAYLOAD,2022-12-20 12:26:19,15.08843162,0.0003161,53.2154,174.6807,37.0021,323.1188,5.8032e-05,6.35e-06,0.0,0 STARLINK-3387,1 51125U 22005X   22354.51828389  .00000635  00000-0  58032-4 0  9999,2 51125  53.2154 174.6807 0003161  37.0021 323.1188 15.08843162 52431,6917.871,95.437,541.922,537.549,0.0
51125.0,STARLINK-3387,PAYLOAD,2022-12-21 12:17:06,15.08841003,0.0003098,53.2155,170.2201,36.8743,323.2461,-9.3055e-06,-4.37e-06,0.0,0 STARLINK-3387,1 51125U 22005X   22355.51188351 -.00000437  00000-0 -93055-5 0  9995,2 51125  53.2155 170.2201 0003098  36.8743 323.2461 15.08841003 51468,6917.877,95.437,541.885,537.599,0.0
51125.0,STARLINK-3387,PAYLOAD,2022-12-21 18:38:39,15.08835871,0.0003133,53.2156,169.0305,37.5852,322.5359,-6.2392e-05,-1.282e-05,0.0,0 STARLINK-3387,1 51125U 22005X   22355.77684814 -.00001282  00000-0 -62392-4 0  9996,2 51125  53.2156 169.0305 0003133  37.5852 322.5359 15.08835871 52622,6917.893,95.438,541.925,537.591,0.0
51125.0,STARLINK-3387,PAYLOAD,2022-12-22 12:07:54,15.08833661,0.000314,53.216,165.7595,36.1304,323.99,1.7739e-05,-6e-08,0.0,0 STARLINK-3387,1 51125U 22005X   22356.50548910 -.00000006  00000-0  17739-4 0  9991,2 51125  53.2160 165.7595 0003140  36.1304 323.9900 15.08833661 51616,6917.9,95.438,541.937,537.5930000000002,0.0
51125.0,STARLINK-3387,PAYLOAD,2022-12-22 18:29:26,15.08835606,0.0003158,53.2156,164.5699,35.815,324.3054,2.5793e-05,1.22e-06,0.0,0 STARLINK-3387,1 51125U 22005X   22356.77044845  .00000122  00000-0  25793-4 0  9995,2 51125  53.2156 164.5699 0003158  35.8150 324.3054 15.08835606 51657,6917.894,95.438,541.943,537.5740000000002,0.0
51125.0,STARLINK-3387,PAYLOAD,2022-12-23 04:01:45,15.08837317,0.0003191999999999,53.2159,162.7856,36.3078,323.813,5.7767e-05,6.31e-06,0.0,0 STARLINK-3387,1 51125U 22005X   22357.16788762  .00000631  00000-0  57767-4 0  9993,2 51125  53.2159 162.7856 0003192  36.3078 323.8130 15.08837317 52839,6917.889,95.438,541.962,537.545,0.0
51125.0,STARLINK-3387,PAYLOAD,2022-12-23 10:23:17,15.08835317,0.0003166,53.2156,161.5961,36.8446,323.2763,0.0001272,1.736e-05,0.0,0 STARLINK-3387,1 51125U 22005X   22357.43284696  .00001736  00000-0  12720-3 0  9996,2 51125  53.2156 161.5961 0003166  36.8446 323.2763 15.08835317 51759,6917.895,95.438,541.95,537.569,0.0
51125.0,STARLINK-3387,PAYLOAD,2022-12-23 15:09:27,15.08837463,0.0003178,53.2156,160.7041,37.4056,322.7157,0.00014044,1.947e-05,0.0,0 STARLINK-3387,1 51125U 22005X   22357.63156629  .00001947  00000-0  14044-3 0  9997,2 51125  53.2156 160.7041 0003178  37.4056 322.7157 15.08837463 51784,6917.888000000001,95.438,541.952,537.555,0.0
51125.0,STARLINK-3387,PAYLOAD,2022-12-23 21:30:59,15.08841409,0.0003207,53.2157,159.5146,38.0861,322.0357,0.00016591,2.353e-05,0.0,0 STARLINK-3387,1 51125U 22005X   22357.89652390  .00002353  00000-0  16591-3 0  9992,2 51125  53.2157 159.5146 0003207  38.0861 322.0357 15.08841409 51826,6917.876,95.437,541.96,537.523,0.0
51125.0,STARLINK-3387,PAYLOAD,2022-12-24 18:11:00,15.08838796,0.0003186,53.2157,155.6489,39.732,320.3905,5.8513e-05,6.43e-06,0.0,0 STARLINK-3387,1 51125U 22005X   22358.75764813  .00000643  00000-0  58513-4 0  9993,2 51125  53.2157 155.6489 0003186  39.7320 320.3905 15.08838796 53071,6917.884,95.438,541.953,537.545,0.0
51125.0,STARLINK-3387,PAYLOAD,2022-12-24 19:46:23,15.08838477,0.000319,53.2159,155.3518,39.8696,320.253,5.4132e-05,5.73e-06,0.0,0 STARLINK-3387,1 51125U 22005X   22358.82388850  .00000573  00000-0  54132-4 0  9999,2 51125  53.2159 155.3518 0003190  39.8696 320.2530 15.08838477 51960,6917.885,95.438,541.957,537.543,0.0
51125.0,STARLINK-3387,PAYLOAD,2022-12-25 03:43:19,15.08843013,0.0003232,53.216,153.8648,40.0306,320.0923,6.8172e-05,7.97e-06,0.0,0 STARLINK-3387,1 51125U 22005X   22359.15508504  .00000797  00000-0  68172-4 0  9993,2 51125  53.2160 153.8648 0003232  40.0306 320.0923 15.08843013 52011,6917.871,95.437,541.972,537.5,0.0
51125.0,STARLINK-3387,PAYLOAD,2022-12-25 19:37:11,15.08835806,0.0003138,53.216,150.8905,40.8537,319.2689,-5.9838e-05,-1.241e-05,0.0,0 STARLINK-3387,1 51125U 22005X   22359.81749241 -.00001241  00000-0 -59838-4 0  9997,2 51125  53.2160 150.8905 0003138  40.8537 319.2689 15.08835806 52114,6917.893,95.438,541.929,537.587,0.0
51125.0,STARLINK-3387,PAYLOAD,2022-12-26 03:34:06,15.0883688,0.0003076,53.2161,149.4034,42.3381,317.7848,-8.561700000000002e-07,-3.02e-06,0.0,0 STARLINK-3387,1 51125U 22005X   22360.14869103 -.00000302  00000-0 -85617-6 0  9998,2 51125  53.2161 149.4034 0003076  42.3381 317.7848 15.08836880 52165,6917.89,95.438,541.883,537.627,0.0
51125.0,STARLINK-3387,PAYLOAD,2022-12-26 16:17:11,15.08842141,0.0003158,53.2158,147.0246,40.458,319.6646,6.866399999999999e-05,8.04e-06,0.0,0 STARLINK-3387,1 51125U 22005X   22360.67860535  .00000804  00000-0  68664-4 0  9992,2 51125  53.2158 147.0246 0003158  40.4580 319.6646 15.08842141 53368,6917.874,95.437,541.924,537.554,0.0
51125.0,STARLINK-3387,PAYLOAD,2022-12-26 19:27:57,15.08846564,0.0003191999999999,53.2159,146.4301,41.4445,318.6789,7.7838e-05,9.51e-06,0.0,0 STARLINK-3387,1 51125U 22005X   22360.81108247  .00000951  00000-0  77838-4 0  9999,2 51125  53.2159 146.4301 0003192  41.4445 318.6789 15.08846564 52261,6917.86,95.437,541.934,537.5169999999998,0.0
51125.0,STARLINK-3387,PAYLOAD,2022-12-27 03:24:52,15.08851102,0.0003201,53.216,144.9432,41.7936,318.33,0.00010935,1.453e-05,0.0,0 STARLINK-3387,1 51125U 22005X   22361.14227730  .00001453  00000-0  10935-3 0  9997,2 51125  53.2160 144.9432 0003201  41.7936 318.3300 15.08851102 53430,6917.846,95.437,541.9259999999998,537.497,0.0
51125.0,STARLINK-3387,PAYLOAD,2022-12-27 19:18:44,15.08845275,0.0003199,53.2152,141.9691,40.7507,319.3724,0.0001537,2.159e-05,0.0,0 STARLINK-3387,1 51125U 22005X   22361.80467785  .00002159  00000-0  15370-3 0  9998,2 51125  53.2152 141.9691 0003199  40.7507 319.3724 15.08845275 53530,6917.864000000001,95.437,541.942,537.516,0.0
51125.0,STARLINK-3387,PAYLOAD,2022-12-28 12:47:58,15.08841451,0.0002784,53.2163,138.6988,34.6952,325.4221,2.8525e-05,1.65e-06,0.0,0 STARLINK-3387,1 51125U 22005X   22362.53332068  .00000165  00000-0  28525-4 0  9996,2 51125  53.2163 138.6988 0002784  34.6952 325.4221 15.08841451 53643,6917.876,95.437,541.6669999999998,537.815,0.0
51125.0,STARLINK-3387,PAYLOAD,2022-12-29 09:28:01,15.08825043,0.0003028,53.2163,134.8324,34.685,325.4339,-9.1707e-05,-1.747e-05,0.0,0 STARLINK-3387,1 51125U 22005X   22363.39445778 -.00001747  00000-0 -91707-4 0  9995,2 51125  53.2163 134.8324 0003028  34.6850 325.4339 15.08825043 53777,6917.926,95.439,541.886,537.696,0.0
51125.0,STARLINK-3387,PAYLOAD,2022-12-30 09:18:48,15.08824581,0.0003083999999999,53.2157,130.3716,41.1729,318.9495,0.00010432,1.371e-05,0.0,0 STARLINK-3387,1 51125U 22005X   22364.38805689  .00001371  00000-0  10432-3 0  9992,2 51125  53.2157 130.3716 0003084  41.1729 318.9495 15.08824581 52805,6917.928000000001,95.439,541.9259999999998,537.659,0.0
51125.0,STARLINK-3387,PAYLOAD,2022-12-30 17:15:42,15.08841835,0.0003161,53.2154,128.8862,40.3574,319.7652,0.00026174,3.88e-05,0.0,0 STARLINK-3387,1 51125U 22005X   22364.71924593  .00003880  00000-0  26174-3 0  9992,2 51125  53.2154 128.8862 0003161  40.3574 319.7652 15.08841835 53975,6917.875,95.437,541.927,537.553,0.0
51125.0,STARLINK-3387,PAYLOAD,2022-12-31 09:09:34,15.08851961,0.0003223,53.2154,125.9145,39.5957,320.527,0.00030169,4.518e-05,0.0,0 STARLINK-3387,1 51125U 22005X   22365.38164494  .00004518  00000-0  30169-3 0  9990,2 51125  53.2154 125.9145 0003223  39.5957 320.5270 15.08851961 52955,6917.844,95.437,541.938,537.479,0.0
51125.0,STARLINK-3387,PAYLOAD,2022-12-31 18:41:52,15.08846975,0.0003179,53.2146,124.1291,31.7631,328.3552,0.00015904,2.244e-05,0.0,0 STARLINK-3387,1 51125U 22005X   22365.77908458  .00002244  00000-0  15904-3 0  9993,2 51125  53.2146 124.1291 0003179  31.7631 328.3552 15.08846975 53018,6917.859,95.437,541.923,537.525,0.0
51125.0,STARLINK-3387,PAYLOAD,2023-01-01 01:03:25,15.08842621,0.0003311,53.2142,122.9389,38.5162,321.6066,-0.00011363,-2.097e-05,0.0,0 STARLINK-3387,1 51125U 22005X   23001.04404876 -.00002097  00000-0 -11363-3 0  9999,2 51125  53.2142 122.9389 0003311  38.5162 321.6066 15.08842621 54178,6917.871999999999,95.437,542.028,537.447,0.0
